{"type": "FeatureCollection", "features": [ {"type": "Feature", "properties": {"norad_id": 37867, "name": "COSMOS 2476 (744)", "group": "gnss", "lat": 56.24821491535925, "lon": -144.38235523316172, "alt_km": 19153.92490744346, "timestamp": "2025-12-05T18:53:13.524668+00:00", "meta": {"OBJECT_NAME": "COSMOS 2476 (744)", "OBJECT_ID": "2011-064A", "EPOCH": "2025-12-02T19:57:36.313920", "MEAN_MOTION": 2.13101261, "ECCENTRICITY": 0.00239603, "INCLINATION": 65.1573, "RA_OF_ASC_NODE": 79.5068, "ARG_OF_PERICENTER": 233.4935, "MEAN_ANOMALY": 133.1658, "EPHEMERIS_TYPE": 0, "CLASSIFICATION_TYPE": "U", "NORAD_CAT_ID": 37867, "ELEMENT_SET_NO": 999, "REV_AT_EPOCH": 10958, "BSTAR": 0, "MEAN_MOTION_DOT": -2.2e-07, "MEAN_MOTION_DDOT": 0}, "tle": {"line1": "1 37867U 11064A   25336.83167030 -.00000022  00000+0  00000+0 0  9993", "line2": "2 37867  65.1573  79.5068 0023960 233.4935 133.1658  2.13101261109581"}}, "geometry": {"type": "Point", "coordinates": [-144.38235523316172, 56.24821491535925]}}, {"type": "Feature", "properties": {"norad_id": 37868, "name": "COSMOS 2477 (745)", "group": "gnss", "lat": -55.37333746479328, "lon": 37.459338967955404, "alt_km": 19110.13685557389, "timestamp": "2025-12-05T18:53:13.524688+00:00", "meta": {"OBJECT_NAME": "COSMOS 2477 (745)", "OBJECT_ID": "2011-064B", "EPOCH": "2025-12-01T05:34:43.743072", "MEAN_MOTION": 2.1310269, "ECCENTRICITY": 0.00209845, "INCLINATION": 65.1625, "RA_OF_ASC_NODE": 79.6383, "ARG_OF_PERICENTER": 233.8301, "MEAN_ANOMALY": 166.8442, "EPHEMERIS_TYPE": 0, "CLASSIFICATION_TYPE": "U", "NORAD_CAT_ID": 37868, "ELEMENT_SET_NO": 999, "REV_AT_EPOCH": 10954, "BSTAR": 0, "MEAN_MOTION_DOT": -1.2e-07, "MEAN_MOTION_DDOT": 0}, "tle": {"line1": "1 37868U 11064B   25335.23245073 -.00000012  00000+0  00000+0 0  9990", "line2": "2 37868  65.1625  79.6383 0020984 233.8301 166.8442  2.13102690109542"}}, "geometry": {"type": "Point", "coordinates": [37.459338967955404, -55.37333746479328]}}, {"type": "Feature", "properties": {"norad_id": 37869, "name": "COSMOS 2475 (743)", "group": "gnss", "lat": -58.993331792374626, "lon": -50.229346654784194, "alt_km": 19069.93843961991, "timestamp": "2025-12-05T18:53:13.524701+00:00", "meta": {"OBJECT_NAME": "COSMOS 2475 (743)", "OBJECT_ID": "2011-064C", "EPOCH": "2025-12-02T03:10:18.719904", "MEAN_MOTION": 2.13101359, "ECCENTRICITY": 0.0026048, "INCLINATION": 65.1701, "RA_OF_ASC_NODE": 79.6277, "ARG_OF_PERICENTER": 248.2415, "MEAN_ANOMALY": 78.6584, "EPHEMERIS_TYPE": 0, "CLASSIFICATION_TYPE": "U", "NORAD_CAT_ID": 37869, "ELEMENT_SET_NO": 999, "REV_AT_EPOCH": 10956, "BSTAR": 0, "MEAN_MOTION_DOT": -1.8e-07, "MEAN_MOTION_DDOT": 0}, "tle": {"line1": "1 37869U 11064C   25336.13216111 -.00000018  00000+0  00000+0 0  9998", "line2": "2 37869  65.1701  79.6277 0026048 248.2415  78.6584  2.13101359109563"}}, "geometry": {"type": "Point", "coordinates": [-50.229346654784194, -58.993331792374626]}}, {"type": "Feature", "properties": {"norad_id": 37948, "name": "BEIDOU-2 IGSO-5 (C10)", "group": "gnss", "lat": 3.0692134690680994, "lon": 91.14834127968304, "alt_km": 35456.21902079955, "timestamp": "2025-12-05T18:53:13.524712+00:00", "meta": {"OBJECT_NAME": "BEIDOU-2 IGSO-5 (C10)", "OBJECT_ID": "2011-073A", "EPOCH": "2025-12-04T19:17:55.815936", "MEAN_MOTION": 1.00292045, "ECCENTRICITY": 0.01106348, "INCLINATION": 48.036, "RA_OF_ASC_NODE": 273.956, "ARG_OF_PERICENTER": 222.1589, "MEAN_ANOMALY": 319.7219, "EPHEMERIS_TYPE": 0, "CLASSIFICATION_TYPE": "U", "NORAD_CAT_ID": 37948, "ELEMENT_SET_NO": 999, "REV_AT_EPOCH": 5118, "BSTAR": 0, "MEAN_MOTION_DOT": -1.77e-06, "MEAN_MOTION_DDOT": 0}, "tle": {"line1": "1 37948U 11073A   25338.80411824 -.00000177  00000+0  00000+0 0  9996", "line2": "2 37948  48.0360 273.9560 0110634 222.1589 319.7219  1.00292045 51180"}}, "geometry": {"type": "Point", "coordinates": [91.14834127968304, 3.0692134690680994]}}, {"type": "Feature", "properties": {"norad_id": 37951, "name": "LUCH 5A (SDCM/PRN 140)", "group": "gnss", "lat": 8.25964390606969, "lon": 165.0565977601284, "alt_km": 35783.230419457985, "timestamp": "2025-12-05T18:53:13.524734+00:00", "meta": {"OBJECT_NAME": "LUCH 5A (SDCM/PRN 140)", "OBJECT_ID": "2011-074B", "EPOCH": "2025-12-05T02:30:23.146848", "MEAN_MOTION": 1.00273509, "ECCENTRICITY": 0.00059088, "INCLINATION": 8.2594, "RA_OF_ASC_NODE": 76.6974, "ARG_OF_PERICENTER": 175.41, "MEAN_ANOMALY": 26.6478, "EPHEMERIS_TYPE": 0, "CLASSIFICATION_TYPE": "U", "NORAD_CAT_ID": 37951, "ELEMENT_SET_NO": 999, "REV_AT_EPOCH": 5110, "BSTAR": 0, "MEAN_MOTION_DOT": -4.1e-07, "MEAN_MOTION_DDOT": 0}, "tle": {"line1": "1 37951U 11074B   25339.10443457 -.00000041  00000+0  00000+0 0  9992", "line2": "2 37951   8.2594  76.6974 0005908 175.4100  26.6478  1.00273509 51101"}}, "geometry": {"type": "Point", "coordinates": [165.0565977601284, 8.25964390606969]}}, {"type": "Feature", "properties": {"norad_id": 38091, "name": "BEIDOU-2 G5 (C05)", "group": "gnss", "lat": -0.7086829248397609, "lon": 56.98889737925738, "alt_km": 35812.56387283401, "timestamp": "2025-12-05T18:53:13.524754+00:00", "meta": {"OBJECT_NAME": "BEIDOU-2 G5 (C05)", "OBJECT_ID": "2012-008A", "EPOCH": "2025-12-05T01:59:26.111904", "MEAN_MOTION": 1.00272818, "ECCENTRICITY": 0.00124323, "INCLINATION": 3.089, "RA_OF_ASC_NODE": 70.7304, "ARG_OF_PERICENTER": 225.8222, "MEAN_ANOMALY": 226.162, "EPHEMERIS_TYPE": 0, "CLASSIFICATION_TYPE": "U", "NORAD_CAT_ID": 38091, "ELEMENT_SET_NO": 999, "REV_AT_EPOCH": 5042, "BSTAR": 0, "MEAN_MOTION_DOT": 6.8e-07, "MEAN_MOTION_DDOT": 0}, "tle": {"line1": "1 38091U 12008A   25339.08294111  .00000068  00000+0  00000+0 0  9992", "line2": "2 38091   3.0890  70.7304 0012432 225.8222 226.1620  1.00272818 50428"}}, "geometry": {"type": "Point", "coordinates": [56.98889737925738, -0.7086829248397609]}}, {"type": "Feature", "properties": {"norad_id": 38250, "name": "BEIDOU-2 M3 (C11)", "group": "gnss", "lat": -48.66271758833066, "lon": -98.89988301091955, "alt_km": 21469.85016515116, "timestamp": "2025-12-05T18:53:13.524770+00:00", "meta": {"OBJECT_NAME": "BEIDOU-2 M3 (C11)", "OBJECT_ID": "2012-018A", "EPOCH": "2025-12-04T06:32:53.001888", "MEAN_MOTION": 1.86229694, "ECCENTRICITY": 0.0024462, "INCLINATION": 55.9274, "RA_OF_ASC_NODE": 311.4423, "ARG_OF_PERICENTER": 273.73, "MEAN_ANOMALY": 85.9745, "EPHEMERIS_TYPE": 0, "CLASSIFICATION_TYPE": "U", "NORAD_CAT_ID": 38250, "ELEMENT_SET_NO": 999, "REV_AT_EPOCH": 9231, "BSTAR": 0, "MEAN_MOTION_DOT": -6.8e-07, "MEAN_MOTION_DDOT": 0}, "tle": {"line1": "1 38250U 12018A   25338.27283567 -.00000068  00000+0  00000+0 0  9994", "line2": "2 38250  55.9274 311.4423 0024462 273.7300  85.9745  1.86229694 92310"}}, "geometry": {"type": "Point", "coordinates": [-98.89988301091955, -48.66271758833066]}}, {"type": "Feature", "properties": {"norad_id": 38251, "name": "BEIDOU-2 M4 (C12)", "group": "gnss", "lat": -15.884831970635302, "lon": -60.54208160324256, "alt_km": 21511.13771751646, "timestamp": "2025-12-05T18:53:13.524782+00:00", "meta": {"OBJECT_NAME": "BEIDOU-2 M4 (C12)", "OBJECT_ID": "2012-018B", "EPOCH": "2025-12-04T04:55:01.467840", "MEAN_MOTION": 1.86229385, "ECCENTRICITY": 0.0015607, "INCLINATION": 55.8289, "RA_OF_ASC_NODE": 310.6742, "ARG_OF_PERICENTER": 276.8686, "MEAN_ANOMALY": 82.9379, "EPHEMERIS_TYPE": 0, "CLASSIFICATION_TYPE": "U", "NORAD_CAT_ID": 38251, "ELEMENT_SET_NO": 999, "REV_AT_EPOCH": 9231, "BSTAR": 0, "MEAN_MOTION_DOT": -6.8e-07, "MEAN_MOTION_DDOT": 0}, "tle": {"line1": "1 38251U 12018B   25338.20487810 -.00000068  00000+0  00000+0 0  9995", "line2": "2 38251  55.8289 310.6742 0015607 276.8686  82.9379  1.86229385 92310"}}, "geometry": {"type": "Point", "coordinates": [-60.54208160324256, -15.884831970635302]}}, {"type": "Feature", "properties": {"norad_id": 38652, "name": "SES-5 (EGNOS/PRN 136)", "group": "gnss", "lat": 0.06234911817728236, "lon": 3.124174289733086, "alt_km": 35789.70034038176, "timestamp": "2025-12-05T18:53:13.524795+00:00", "meta": {"OBJECT_NAME": "SES-5 (EGNOS/PRN 136)", "OBJECT_ID": "2012-036A", "EPOCH": "2025-12-05T03:26:55.228992", "MEAN_MOTION": 1.00269732, "ECCENTRICITY": 0.00021658, "INCLINATION": 0.0566, "RA_OF_ASC_NODE": 305.3747, "ARG_OF_PERICENTER": 308.0279, "MEAN_ANOMALY": 237.5078, "EPHEMERIS_TYPE": 0, "CLASSIFICATION_TYPE": "U", "NORAD_CAT_ID": 38652, "ELEMENT_SET_NO": 999, "REV_AT_EPOCH": 4252, "BSTAR": 0, "MEAN_MOTION_DOT": 4.6e-07, "MEAN_MOTION_DDOT": 0}, "tle": {"line1": "1 38652U 12036A   25339.14369478  .00000046  00000+0  00000+0 0  9998", "line2": "2 38652   0.0566 305.3747 0002165 308.0279 237.5078  1.00269732 42520"}}, "geometry": {"type": "Point", "coordinates": [3.124174289733086, 0.06234911817728236]}}, {"type": "Feature", "properties": {"norad_id": 38775, "name": "BEIDOU-2 M6 (C14)", "group": "gnss", "lat": 4.588417643127503, "lon": -113.75183086073068, "alt_km": 21557.910085229243, "timestamp": "2025-12-05T18:53:13.524807+00:00", "meta": {"OBJECT_NAME": "BEIDOU-2 M6 (C14)", "OBJECT_ID": "2012-050B", "EPOCH": "2025-12-03T09:05:34.856160", "MEAN_MOTION": 1.86230686, "ECCENTRICITY": 0.00108899, "INCLINATION": 56.3706, "RA_OF_ASC_NODE": 69.3782, "ARG_OF_PERICENTER": 346.3356, "MEAN_ANOMALY": 13.638, "EPHEMERIS_TYPE": 0, "CLASSIFICATION_TYPE": "U", "NORAD_CAT_ID": 38775, "ELEMENT_SET_NO": 999, "REV_AT_EPOCH": 8966, "BSTAR": 0, "MEAN_MOTION_DOT": -5e-07, "MEAN_MOTION_DDOT": 0}, "tle": {"line1": "1 38775U 12050B   25337.37887565 -.00000050  00000+0  00000+0 0  9991", "line2": "2 38775  56.3706  69.3782 0010889 346.3356  13.6380  1.86230686 89660"}}, "geometry": {"type": "Point", "coordinates": [-113.75183086073068, 4.588417643127503]}}]}